#aV2023  6  4  0  0  0.00000000     288 DD+AD WGS84 FIT  NGA
## 2265      0.00000000   300.00000000 60099 0.0000000000000
+   32     1  2  3  4  5  6  7  8  9 10 11 12 13 14 15 16 17
+         18 19 20 21 22 23 24 25 26 27 28 29 30 31 32  0  0
+          0  0  0  0  0  0  0  0  0  0  0  0  0  0  0  0  0
+          0  0  0  0  0  0  0  0  0  0  0  0  0  0  0  0  0
+          0  0  0  0  0  0  0  0  0  0  0  0  0  0  0  0  0
++         2  2  2  2  2  2  2  2  2  2  2  2  2  2  2  2  2
++         2  2  2  2  2  2  2  2  2  2  2  2  2  2  2  0  0
++         0  0  0  0  0  0  0  0  0  0  0  0  0  0  0  0  0
++         0  0  0  0  0  0  0  0  0  0  0  0  0  0  0  0  0
++         0  0  0  0  0  0  0  0  0  0  0  0  0  0  0  0  0
%c cc cc ccc ccc cccc cccc cccc cccc ccccc ccccc ccccc ccccc
%c cc cc ccc ccc cccc cccc cccc cccc ccccc ccccc ccccc ccccc
%f  0.0000000  0.000000000  0.00000000000  0.000000000000000
%f  0.0000000  0.000000000  0.00000000000  0.000000000000000
%i    0    0    0    0      0      0      0      0         0
%i    0    0    0    0      0      0      0      0         0
/*      NGA, ST. LOUIS,MO.                                  
/*   EPHEMERIS COMPUTED FROM 2 DAYS OF DATA                 
/*   EPOCHA v8 SMOOTHER                                     
/*   G2139 IERS2010 SATIGS SATAPC                           
*  2023  6  4  3 45  0.00000000
P  1 -16449.129652  -4855.619632  20044.036662    180.646619                    
V  1  -9729.334929 -24154.236741 -13269.444790     -0.025290                    
P  2 -18644.253896 -13536.446822  14075.945651   -589.262252                    
V  2  -6727.122188 -15471.027152 -24506.036587      0.040433                    
P  3 -19034.185652   7093.430006  16912.837234   -282.368462                    
V  3  11399.990530 -18572.658616  20574.523205      0.127148                    
P  4 -26112.908498    196.767150  -5162.068826     58.930723                    
V  4  -6154.929402  -3428.468397  30815.982348      0.101239                    
P  5  12060.020091   9258.830745 -21950.329734   -129.758987                    
V  5 -15044.101475  22943.858410   1537.530805     -0.014679                    
P  6   3838.433809  24392.593182   9710.706065    586.556185                    
V  6  -6594.557156 -10466.551442  29164.241070     -0.013866                    
P  7 -10891.388919  11742.976946 -20647.739905    161.448148                    
V  7 -12258.821106 -24545.174000  -7809.449777     -0.098025                    
P  8 -24968.934212  -6672.204848  -7035.575964   -125.682707                    
V  8   8889.173566  -1799.621885 -29767.372377     -0.018131                    
P  9 -21098.072954   8309.930010 -13934.909208   -143.851875                    
V  9 -17357.577913  -3527.286711  24258.986032      0.087208                    
P 10   9611.748997 -23191.771854   8347.927647    -39.704843                    
V 10   7896.129083  -7173.707550 -29952.746973     -0.015637                    
P 11  12778.308873  22747.512956  -5085.088500   -221.893357                    
V 11    -17.540480   6947.552204  30953.539037     -0.146356                    
P 12  18789.083537  -2980.003632  18221.851672   -384.255564                    
V 12 -13888.555055  19299.202026  17295.532754     -0.046971                    
P 13  19562.545638  13390.452478 -12364.117399    529.225580                    
V 13 -15351.880544  -1699.833979 -26309.931109      0.051836                    
P 14 -12509.689048  22724.461616   5326.977773     79.135673                    
V 14  -6673.617430   3449.525845 -30615.026785      0.125376                    
P 15  25585.603636   4010.783331  -6941.522756     45.642186                    
V 15  -8043.250999   3589.297564 -29282.197058      0.034893                    
P 16  -8469.817979 -13186.610852 -21692.085920   -494.915719                    
V 16  17956.963343 -20008.513584   5670.158010      0.036523                    
P 17  -6718.405274  14040.444484  21963.518974    717.205356                    
V 17 -26435.080572  -4517.791267  -5198.113887      0.012920                    
P 18   8556.069915 -14865.035225 -20237.656088   -293.604042                    
V 18  11134.581956  23185.297375 -12476.119468     -0.153126                    
P 19   2955.264611  15387.870425  21266.910366    325.873324                    
V 19 -26970.609434  -5092.175530   7056.610361      0.051186                    
P 20   6301.718500  17774.977143 -18739.574661    429.927723                    
V 20 -11750.533434  20798.788865  15560.164385     -0.020882                    
P 21 -19004.828388 -12536.668100  14908.160105    153.387784                    
V 21  -7503.382901 -16028.190636 -23080.215556     -0.002823                    
P 22  -6448.776999 -15881.112089  20781.760295    492.301159                    
V 22  25061.397744   3745.624051  10722.015429      0.061080                    
P 23  16725.585551 -20144.825127  -3925.204722     29.950368                    
V 23   -727.115345   5539.425957 -31636.954996      0.034418                    
P 24  18843.349837   8190.923691  16691.787510   -212.635712                    
V 24   8905.375507  20016.216656 -19041.097389     -0.133779                    
P 25  19174.139175 -14777.571434  10303.567268    447.449666                    
V 25  -5352.987201  12896.501916  27885.044261      0.025851                    
P 26     55.328193 -21645.072761 -15280.121918    239.756950                    
V 26  12508.325249 -15094.508361  21933.247205     -0.007246                    
P 27 -17102.479295 -12837.214582 -16264.196901     23.603931                    
V 27  20054.833456    414.782673 -21350.464073     -0.077831                    
P 28  -3167.725675 -23875.579340  11180.248910     82.031277                    
V 28   8503.199068  11660.672510  27251.503924      0.017131                    
P 29  23186.950853  -4427.569080 -12322.779623   -601.687517                    
V 29  14953.306649   4474.917980  26557.346711     -0.012319                    
P 30  -3375.210815  20931.130384 -15717.601882   -513.236443                    
V 30 -10696.000914 -17514.955525 -21139.523733      0.023414                    
P 31 -10762.813062 -24019.044093   -614.007146   -217.438678                    
V 31   2897.084640  -1876.417502  31876.573432     -0.008055                    
P 32   2990.822435 -15093.853143  21822.225302   -492.277515                    
V 32  27166.141475   2634.338108  -2111.217652     -0.087243                    
EOF
